[{"OBJECT_NAME":"LAPAN-A3","OBJECT_ID":"2016-040E","EPOCH":"2026-03-09T23:01:57.724896","MEAN_MOTION":15.3238951,"ECCENTRICITY":0.00109839,"INCLINATION":97.1488,"RA_OF_ASC_NODE":68.4254,"ARG_OF_PERICENTER":22.062,"MEAN_ANOMALY":338.1093,"EPHEMERIS_TYPE":0,"CLASSIFICATION_TYPE":"U","NORAD_CAT_ID":41603,"ELEMENT_SET_NO":999,"REV_AT_EPOCH":53961,"BSTAR":0.00017567445,"MEAN_MOTION_DOT":5.428e-5,"MEAN_MOTION_DDOT":0},{"OBJECT_NAME":"STARLINK-1265","OBJECT_ID":"2020-019AY","EPOCH":"2026-03-09T10:33:04.701600","MEAN_MOTION":15.30208888,"ECCENTRICITY":0.00013389,"INCLINATION":53.1592,"RA_OF_ASC_NODE":130.5081,"ARG_OF_PERICENTER":82.5689,"MEAN_ANOMALY":277.5464,"EPHEMERIS_TYPE":0,"CLASSIFICATION_TYPE":"U","NORAD_CAT_ID":45406,"ELEMENT_SET_NO":999,"REV_AT_EPOCH":32993,"BSTAR":0.00019825074,"MEAN_MOTION_DOT":5.518e-5,"MEAN_MOTION_DDOT":0}]
